{"type": "FeatureCollection", "features": [{"type": "Feature", "properties": {"norad_id": 2807, "name": "OPS 7218 (TRANSIT 16)", "group": "nnss", "lat": -48.64609046861619, "lon": 174.58541847458727, "alt_km": 1078.9002764450497, "timestamp": "2025-12-06T18:50:10.436831+00:00", "meta": {"OBJECT_NAME": "OPS 7218 (TRANSIT 16)", "OBJECT_ID": "1967-048A", "EPOCH": "2025-12-06T00:04:17.891904", "MEAN_MOTION": 13.50720333, "ECCENTRICITY": 0.00216313, "INCLINATION": 89.6733, "RA_OF_ASC_NODE": 354.2398, "ARG_OF_PERICENTER": 132.2001, "MEAN_ANOMALY": 256.5241, "EPHEMERIS_TYPE": 0, "CLASSIFICATION_TYPE": "U", "NORAD_CAT_ID": 2807, "ELEMENT_SET_NO": 999, "REV_AT_EPOCH": 88185, "BSTAR": 0.00025066895, "MEAN_MOTION_DOT": 1.72e-06, "MEAN_MOTION_DDOT": 0}, "tle": {"line1": "1 02807U 67048A   25340.00298486  .00000172  00000+0  25067-3 0  9995", "line2": "2 02807  89.6733 354.2398 0021631 132.2001 256.5241 13.50720333881853"}}, "geometry": {"type": "Point", "coordinates": [174.58541847458727, -48.64609046861619]}}, {"type": "Feature", "properties": {"norad_id": 2965, "name": "OPS 4947 (TRANSIT 17)", "group": "nnss", "lat": -54.233997238866145, "lon": -154.06858943695931, "alt_km": 1034.2696162202328, "timestamp": "2025-12-06T18:50:10.436857+00:00", "meta": {"OBJECT_NAME": "OPS 4947 (TRANSIT 17)", "OBJECT_ID": "1967-092A", "EPOCH": "2025-12-06T01:50:48.820416", "MEAN_MOTION": 13.53451191, "ECCENTRICITY": 0.00458489, "INCLINATION": 89.2503, "RA_OF_ASC_NODE": 24.9437, "ARG_OF_PERICENTER": 254.5025, "MEAN_ANOMALY": 132.75, "EPHEMERIS_TYPE": 0, "CLASSIFICATION_TYPE": "U", "NORAD_CAT_ID": 2965, "ELEMENT_SET_NO": 999, "REV_AT_EPOCH": 87007, "BSTAR": 0.00030153037, "MEAN_MOTION_DOT": 2.15e-06, "MEAN_MOTION_DDOT": 0}, "tle": {"line1": "1 02965U 67092A   25340.07695394  .00000215  00000+0  30153-3 0  9995", "line2": "2 02965  89.2503  24.9437 0045848 254.5025 132.7500 13.53451191870075"}}, "geometry": {"type": "Point", "coordinates": [-154.06858943695931, -54.233997238866145]}}, {"type": "Feature", "properties": {"norad_id": 3133, "name": "OPS 7034 (TRANSIT 18)", "group": "nnss", "lat": 63.196797391434295, "lon": -86.43173032956528, "alt_km": 1090.0295230040547, "timestamp": "2025-12-06T18:50:10.436871+00:00", "meta": {"OBJECT_NAME": "OPS 7034 (TRANSIT 18)", "OBJECT_ID": "1968-012A", "EPOCH": "2025-12-05T21:31:36.702048", "MEAN_MOTION": 13.51563444, "ECCENTRICITY": 0.0073213, "INCLINATION": 90.0272, "RA_OF_ASC_NODE": 273.6197, "ARG_OF_PERICENTER": 189.0449, "MEAN_ANOMALY": 237.3312, "EPHEMERIS_TYPE": 0, "CLASSIFICATION_TYPE": "U", "NORAD_CAT_ID": 3133, "ELEMENT_SET_NO": 999, "REV_AT_EPOCH": 56826, "BSTAR": 0.00026501947, "MEAN_MOTION_DOT": 1.85e-06, "MEAN_MOTION_DDOT": 0}, "tle": {"line1": "1 03133U 68012A   25339.89695257  .00000185  00000+0  26502-3 0  9991", "line2": "2 03133  90.0272 273.6197 0073213 189.0449 237.3312 13.51563444568262"}}, "geometry": {"type": "Point", "coordinates": [-86.43173032956528, 63.196797391434295]}}, {"type": "Feature", "properties": {"norad_id": 4507, "name": "NNSS 19 (TRANSIT 19)", "group": "nnss", "lat": 42.665543651662674, "lon": -125.47569643940888, "alt_km": 1066.1552247908403, "timestamp": "2025-12-06T18:50:10.436884+00:00", "meta": {"OBJECT_NAME": "NNSS 19 (TRANSIT 19)", "OBJECT_ID": "1970-067A", "EPOCH": "2025-12-06T04:24:41.441472", "MEAN_MOTION": 13.51312552, "ECCENTRICITY": 0.01709783, "INCLINATION": 90.0058, "RA_OF_ASC_NODE": 234.5293, "ARG_OF_PERICENTER": 312.5195, "MEAN_ANOMALY": 46.1621, "EPHEMERIS_TYPE": 0, "CLASSIFICATION_TYPE": "U", "NORAD_CAT_ID": 4507, "ELEMENT_SET_NO": 999, "REV_AT_EPOCH": 72133, "BSTAR": 0.00034806275, "MEAN_MOTION_DOT": 2.55e-06, "MEAN_MOTION_DDOT": 0}, "tle": {"line1": "1 04507U 70067A   25340.18381298  .00000255  00000+0  34806-3 0  9995", "line2": "2 04507  90.0058 234.5293 0170978 312.5195  46.1621 13.51312552721330"}}, "geometry": {"type": "Point", "coordinates": [-125.47569643940888, 42.665543651662674]}}, {"type": "Feature", "properties": {"norad_id": 6909, "name": "NNSS 20 (TRANSIT 20)", "group": "nnss", "lat": 41.2258382073974, "lon": -104.73036369594651, "alt_km": 923.1554550906003, "timestamp": "2025-12-06T18:50:10.436895+00:00", "meta": {"OBJECT_NAME": "NNSS 20 (TRANSIT 20)", "OBJECT_ID": "1973-081A", "EPOCH": "2025-12-06T04:37:44.297184", "MEAN_MOTION": 13.71429753, "ECCENTRICITY": 0.01565653, "INCLINATION": 89.856, "RA_OF_ASC_NODE": 255.1523, "ARG_OF_PERICENTER": 97.6982, "MEAN_ANOMALY": 264.1991, "EPHEMERIS_TYPE": 0, "CLASSIFICATION_TYPE": "U", "NORAD_CAT_ID": 6909, "ELEMENT_SET_NO": 999, "REV_AT_EPOCH": 80271, "BSTAR": 0.00034988406, "MEAN_MOTION_DOT": 3.55e-06, "MEAN_MOTION_DDOT": 0}, "tle": {"line1": "1 06909U 73081A   25340.19287381  .00000355  00000+0  34988-3 0  9993", "line2": "2 06909  89.8560 255.1523 0156565  97.6982 264.1991 13.71429753802716"}}, "geometry": {"type": "Point", "coordinates": [-104.73036369594651, 41.2258382073974]}}, {"type": "Feature", "properties": {"norad_id": 10457, "name": "TRANSAT", "group": "nnss", "lat": 83.7260771376996, "lon": -104.39479980822432, "alt_km": 1075.2754778320868, "timestamp": "2025-12-06T18:50:10.436907+00:00", "meta": {"OBJECT_NAME": "TRANSAT", "OBJECT_ID": "1977-106A", "EPOCH": "2025-12-06T01:25:03.749952", "MEAN_MOTION": 13.48942032, "ECCENTRICITY": 0.00247816, "INCLINATION": 89.6483, "RA_OF_ASC_NODE": 78.8335, "ARG_OF_PERICENTER": 209.1474, "MEAN_ANOMALY": 324.9775, "EPHEMERIS_TYPE": 0, "CLASSIFICATION_TYPE": "U", "NORAD_CAT_ID": 10457, "ELEMENT_SET_NO": 999, "REV_AT_EPOCH": 36653, "BSTAR": 0.0002178833, "MEAN_MOTION_DOT": 1.47e-06, "MEAN_MOTION_DDOT": 0}, "tle": {"line1": "1 10457U 77106A   25340.05907118  .00000147  00000+0  21788-3 0  9993", "line2": "2 10457  89.6483  78.8335 0024781 209.1474 324.9775 13.48942032366536"}}, "geometry": {"type": "Point", "coordinates": [-104.39479980822432, 83.7260771376996]}}, {"type": "Feature", "properties": {"norad_id": 12458, "name": "NOVA 1", "group": "nnss", "lat": -7.776894552192075, "lon": -88.5104823468962, "alt_km": 1171.874327612706, "timestamp": "2025-12-06T18:50:10.436918+00:00", "meta": {"OBJECT_NAME": "NOVA 1", "OBJECT_ID": "1981-044A", "EPOCH": "2025-12-06T07:05:10.925376", "MEAN_MOTION": 13.23277516, "ECCENTRICITY": 0.00156697, "INCLINATION": 89.8524, "RA_OF_ASC_NODE": 91.4763, "ARG_OF_PERICENTER": 119.8526, "MEAN_ANOMALY": 256.7434, "EPHEMERIS_TYPE": 0, "CLASSIFICATION_TYPE": "U", "NORAD_CAT_ID": 12458, "ELEMENT_SET_NO": 999, "REV_AT_EPOCH": 15101, "BSTAR": 0.0002024482, "MEAN_MOTION_DOT": 9.5e-07, "MEAN_MOTION_DDOT": 0}, "tle": {"line1": "1 12458U 81044A   25340.29526534  .00000095  00000+0  20245-3 0  9996", "line2": "2 12458  89.8524  91.4763 0015669 119.8526 256.7434 13.23277516151013"}}, "geometry": {"type": "Point", "coordinates": [-88.5104823468962, -7.776894552192075]}}, {"type": "Feature", "properties": {"norad_id": 15362, "name": "NOVA 3", "group": "nnss", "lat": 65.48998863116206, "lon": 80.19589723667218, "alt_km": 1161.4070158057184, "timestamp": "2025-12-06T18:50:10.436929+00:00", "meta": {"OBJECT_NAME": "NOVA 3", "OBJECT_ID": "1984-110A", "EPOCH": "2025-12-06T05:57:58.790304", "MEAN_MOTION": 13.23043415, "ECCENTRICITY": 0.00310279, "INCLINATION": 90.1224, "RA_OF_ASC_NODE": 80.4582, "ARG_OF_PERICENTER": 350.1781, "MEAN_ANOMALY": 42.3719, "EPHEMERIS_TYPE": 0, "CLASSIFICATION_TYPE": "U", "NORAD_CAT_ID": 15362, "ELEMENT_SET_NO": 999, "REV_AT_EPOCH": 98613, "BSTAR": 0.00028227425, "MEAN_MOTION_DOT": 1.27e-06, "MEAN_MOTION_DDOT": 0}, "tle": {"line1": "1 15362U 84110A   25340.24859711  .00000127  00000+0  28227-3 0  9995", "line2": "2 15362  90.1224  80.4582 0031027 350.1781  42.3719 13.23043415986131"}}, "geometry": {"type": "Point", "coordinates": [80.19589723667218, 65.48998863116206]}}, {"type": "Feature", "properties": {"norad_id": 15935, "name": "OSCAR 30", "group": "nnss", "lat": -48.56340511901974, "lon": -80.43707618367002, "alt_km": 1207.6868430586565, "timestamp": "2025-12-06T18:50:10.436940+00:00", "meta": {"OBJECT_NAME": "OSCAR 30", "OBJECT_ID": "1985-066A", "EPOCH": "2025-12-06T02:22:56.966880", "MEAN_MOTION": 13.36076545, "ECCENTRICITY": 0.01693734, "INCLINATION": 90.1648, "RA_OF_ASC_NODE": 99.7386, "ARG_OF_PERICENTER": 102.4366, "MEAN_ANOMALY": 68.9207, "EPHEMERIS_TYPE": 0, "CLASSIFICATION_TYPE": "U", "NORAD_CAT_ID": 15935, "ELEMENT_SET_NO": 999, "REV_AT_EPOCH": 96364, "BSTAR": 0.00024126207, "MEAN_MOTION_DOT": 1.44e-06, "MEAN_MOTION_DDOT": 0}, "tle": {"line1": "1 15935U 85066A   25340.09927045  .00000144  00000+0  24126-3 0  9994", "line2": "2 15935  90.1648  99.7386 0169373 102.4366  68.9207 13.36076545963646"}}, "geometry": {"type": "Point", "coordinates": [-80.43707618367002, -48.56340511901974]}}, {"type": "Feature", "properties": {"norad_id": 15936, "name": "OSCAR 24", "group": "nnss", "lat": -55.34093982101138, "lon": 92.4588200887682, "alt_km": 1253.1124352709649, "timestamp": "2025-12-06T18:50:10.436950+00:00", "meta": {"OBJECT_NAME": "OSCAR 24", "OBJECT_ID": "1985-066B", "EPOCH": "2025-12-06T01:59:27.678336", "MEAN_MOTION": 13.35934256, "ECCENTRICITY": 0.01703885, "INCLINATION": 90.1788, "RA_OF_ASC_NODE": 92.1877, "ARG_OF_PERICENTER": 108.9205, "MEAN_ANOMALY": 62.7783, "EPHEMERIS_TYPE": 0, "CLASSIFICATION_TYPE": "U", "NORAD_CAT_ID": 15936, "ELEMENT_SET_NO": 999, "REV_AT_EPOCH": 96554, "BSTAR": 0.0002288096, "MEAN_MOTION_DOT": 1.37e-06, "MEAN_MOTION_DDOT": 0}, "tle": {"line1": "1 15936U 85066B   25340.08295924  .00000137  00000+0  22881-3 0  9996", "line2": "2 15936  90.1788  92.1877 0170388 108.9205  62.7783 13.35934256965548"}}, "geometry": {"type": "Point", "coordinates": [92.4588200887682, -55.34093982101138]}}]}